[{"OBJECT_NAME":"TIANMU-1 10","OBJECT_ID":"2023-101D","EPOCH":"2026-03-09T23:06:46.939392","MEAN_MOTION":15.2921896,"ECCENTRICITY":0.00069292,"INCLINATION":97.2749,"RA_OF_ASC_NODE":122.1027,"ARG_OF_PERICENTER":133.6162,"MEAN_ANOMALY":226.5654,"EPHEMERIS_TYPE":0,"CLASSIFICATION_TYPE":"U","NORAD_CAT_ID":57402,"ELEMENT_SET_NO":999,"REV_AT_EPOCH":14647,"BSTAR":0.00032238884,"MEAN_MOTION_DOT":9.075e-5,"MEAN_MOTION_DDOT":0},{"OBJECT_NAME":"STARLINK-31515","OBJECT_ID":"2024-068X","EPOCH":"2026-03-09T07:14:07.901376","MEAN_MOTION":15.27574601,"ECCENTRICITY":0.00011981,"INCLINATION":43.0066,"RA_OF_ASC_NODE":36.6784,"ARG_OF_PERICENTER":237.9446,"MEAN_ANOMALY":122.1289,"EPHEMERIS_TYPE":0,"CLASSIFICATION_TYPE":"U","NORAD_CAT_ID":59476,"ELEMENT_SET_NO":999,"REV_AT_EPOCH":10846,"BSTAR":-1.4158144e-5,"MEAN_MOTION_DOT":-6.52e-6,"MEAN_MOTION_DDOT":0}]
